CAS-2T & KS-1Q          
1 41847U 16066G   20175.39904812  .00000066  00000-0  20721-4 0  9992
2 41847  98.6532 225.9763 0365094 211.0630 146.8508 14.38072527190273
NAYIF-1 (EO-88)         
1 42017U 17008BX  20174.98987118  .00000961  00000-0  39548-4 0  9994
2 42017  97.3595 242.4714 0004789 313.5315  46.5525 15.26513943186390
MAX VALIER SAT          
1 42778U 17036P   20175.38837643  .00000565  00000-0  27184-4 0  9994
2 42778  97.3043 228.8602 0012310  10.2792 349.8694 15.22631561166639
RADFXSAT (FOX-1B)       
1 43017U 17073E   20175.00521765  .00000552  00000-0  47958-4 0  9993
2 43017  97.7230  87.0263 0257913  32.5724 329.1107 14.78945314139980
FOX-1D (AO-92)          
1 43137U 18004AC  20175.19596719  .00000639  00000-0  29194-4 0  9990
2 43137  97.4454 246.3181 0010219  43.8371 316.3676 15.24134910135929
DIWATA-2B               
1 43678U 18084H   20175.37745536  .00000378  00000-0  43328-4 0  9996
2 43678  97.8849 293.7804 0010510 150.2654 209.9146 14.91638561 89909
ES'HAIL 2               
1 43700U 18090A   20175.30303140  .00000151  00000-0  00000+0 0  9997
2 43700   0.0157 356.0778 0000998 112.7027 298.0180  1.00270813  6018
FOX-1CLIFF (AO-95)      
1 43770U 18099N   20175.19775024  .00000247  00000-0  27817-4 0  9990
2 43770  97.7053 246.4785 0014862 172.2746 187.8706 14.94992105 84777
ITASAT 1                
1 43786U 18099AE  20175.19337095  .00000003  00000-0  54392-5 0  9998
2 43786  97.7068 246.8977 0015613 166.4643 193.7000 14.95330651 84791
JY1SAT (JO-97)          
1 43803U 18099AX  20174.73887581  .00000513  00000-0  51374-4 0  9999
2 43803  97.7030 246.2684 0015612 167.9531 192.2067 14.95508192 84727
PSAT2 (NO-104)          
1 44354U 19036R   20174.89973050  .00005272  00000-0  73750-4 0  9996
2 44354  28.5316 344.8320 0364196   9.2457 351.4626 15.03513998 54636
BRICSAT2 (NO-103)       
1 44355U 19036S   20174.82233462  .00009751  00000-0  13362-3 0  9994
2 44355  28.5312 336.3855 0343013  22.9843 338.5709 15.08892953 54711
JAISAT-1                
1 44419U 19038F   20175.37609130  .00000550  00000-0  34877-4 0  9990
2 44419  97.5389 136.9020 0023211 108.6880 251.6873 15.12788718 53497
DUCHIFAT-3              
1 44854U 19089C   20175.11757744  .00000148  00000-0  18431-4 0  9997
2 44854  36.9675  64.8774 0006829 107.0702  44.5148 14.99071784 29143
RS-44 & BREEZE-KM R/B   
1 44909U 19096E   20174.98747837  .00000001  00000-0 -36274-4 0  9996
2 44909  82.5212 351.6358 0216799 213.3353 145.3940 12.79708033 22890
ORBITAL FACTORY 2 (OF-2)
1 45113U 19071C   20174.89355225  .00000869  00000-0  38108-4 0  9992
2 45113  51.6451 337.2688 0013588  78.3005 281.9501 15.33372150 21967
HUSKYSAT-1              
1 45119U 19071J   20174.87118789  .00001006  00000-0  42029-4 0  9999
2 45119  51.6449 337.1202 0012876  74.7626 285.4779 15.33587255 21958
